{
  "type": "FeatureCollection",
  "features": [
    {
      "type": "Feature",
      "properties": {
        "norad_id": 33376,
        "name": "GALAXY 19 (G-19)",
        "group": "intelsat",
        "lat": -0.032925789360827594,
        "lon": -163.43515696059987,
        "alt_km": 35782.920522035376,
        "timestamp": "2025-12-17T13:48:37.211956+00:00",
        "meta_object_name": "GALAXY 19 (G-19)",
        "meta_object_id": "2008-045A",
        "meta_epoch": "2025-12-17T04:43:38.845632",
        "meta_mean_motion": 1.00271073,
        "meta_eccentricity": 0.00025264,
        "meta_inclination": 0.0231,
        "meta_ra_of_asc_node": 281.4953,
        "meta_arg_of_pericenter": 346.7444,
        "meta_mean_anomaly": 151.7496,
        "meta_ephemeris_type": 0,
        "meta_classification_type": "U",
        "meta_norad_cat_id": 33376,
        "meta_element_set_no": 999,
        "meta_rev_at_epoch": 6307,
        "meta_bstar": 0,
        "meta_mean_motion_dot": -1.14e-06,
        "meta_mean_motion_ddot": 0,
        "tle_line1": "1 33376U 08045A   25351.19697738 -.00000114  00000+0  00000+0 0  9990",
        "tle_line2": "2 33376   0.0231 281.4953 0002526 346.7444 151.7496  1.00271073 63079"
      },
      "geometry": {
        "type": "Point",
        "coordinates": [
          -163.43515696059987,
          -0.032925789360827594
        ]
      }
    },
    {
      "type": "Feature",
      "properties": {
        "norad_id": 35493,
        "name": "FM-5",
        "group": "intelsat",
        "lat": -0.03478887331910418,
        "lon": -152.54213131543654,
        "alt_km": 35784.58146990028,
        "timestamp": "2025-12-17T13:48:37.211968+00:00",
        "meta_object_name": "FM-5",
        "meta_object_id": "2009-034A",
        "meta_epoch": "2025-12-17T04:21:21.631104",
        "meta_mean_motion": 1.00270676,
        "meta_eccentricity": 8.339e-05,
        "meta_inclination": 0.0203,
        "meta_ra_of_asc_node": 291.2206,
        "meta_arg_of_pericenter": 218.2169,
        "meta_mean_anomaly": 275.8228,
        "meta_ephemeris_type": 0,
        "meta_classification_type": "U",
        "meta_norad_cat_id": 35493,
        "meta_element_set_no": 999,
        "meta_rev_at_epoch": 4481,
        "meta_bstar": 0,
        "meta_mean_motion_dot": -1.76e-06,
        "meta_mean_motion_ddot": 0,
        "tle_line1": "1 35493U 09034A   25351.18150036 -.00000176  00000+0  00000+0 0  9993",
        "tle_line2": "2 35493   0.0203 291.2206 0000833 218.2169 275.8228  1.00270676 44816"
      },
      "geometry": {
        "type": "Point",
        "coordinates": [
          -152.54213131543654,
          -0.03478887331910418
        ]
      }
    },
    {
      "type": "Feature",
      "properties": {
        "norad_id": 36097,
        "name": "INTELSAT 14 (IS-14)",
        "group": "intelsat",
        "lat": -0.036178542252655835,
        "lon": -111.4072107966279,
        "alt_km": 35776.736955091576,
        "timestamp": "2025-12-17T13:48:37.211979+00:00",
        "meta_object_name": "INTELSAT 14 (IS-14)",
        "meta_object_id": "2009-064A",
        "meta_epoch": "2025-12-17T04:33:05.507712",
        "meta_mean_motion": 1.00272273,
        "meta_eccentricity": 0.0002442,
        "meta_inclination": 0.0132,
        "meta_ra_of_asc_node": 319.0001,
        "meta_arg_of_pericenter": 316.2318,
        "meta_mean_anomaly": 194.1226,
        "meta_ephemeris_type": 0,
        "meta_classification_type": "U",
        "meta_norad_cat_id": 36097,
        "meta_element_set_no": 999,
        "meta_rev_at_epoch": 5878,
        "meta_bstar": 0,
        "meta_mean_motion_dot": -2.49e-06,
        "meta_mean_motion_ddot": 0,
        "tle_line1": "1 36097U 09064A   25351.18964708 -.00000249  00000+0  00000+0 0  9997",
        "tle_line2": "2 36097   0.0132 319.0001 0002442 316.2318 194.1226  1.00272273 58780"
      },
      "geometry": {
        "type": "Point",
        "coordinates": [
          -111.4072107966279,
          -0.036178542252655835
        ]
      }
    },
    {
      "type": "Feature",
      "properties": {
        "norad_id": 36106,
        "name": "INTELSAT 15 (IS-15)",
        "group": "intelsat",
        "lat": 0.027304229164668313,
        "lon": 18.772917918712515,
        "alt_km": 35788.024838719204,
        "timestamp": "2025-12-17T13:48:37.211990+00:00",
        "meta_object_name": "INTELSAT 15 (IS-15)",
        "meta_object_id": "2009-067A",
        "meta_epoch": "2025-12-17T02:39:38.687616",
        "meta_mean_motion": 1.00271701,
        "meta_eccentricity": 0.00021663,
        "meta_inclination": 0.0165,
        "meta_ra_of_asc_node": 336.2151,
        "meta_arg_of_pericenter": 300.7705,
        "meta_mean_anomaly": 294.0735,
        "meta_ephemeris_type": 0,
        "meta_classification_type": "U",
        "meta_norad_cat_id": 36106,
        "meta_element_set_no": 999,
        "meta_rev_at_epoch": 3940,
        "meta_bstar": 0,
        "meta_mean_motion_dot": -1.61e-06,
        "meta_mean_motion_ddot": 0,
        "tle_line1": "1 36106U 09067A   25351.11086444 -.00000161  00000+0  00000+0 0  9999",
        "tle_line2": "2 36106   0.0165 336.2151 0002166 300.7705 294.0735  1.00271701 39403"
      },
      "geometry": {
        "type": "Point",
        "coordinates": [
          18.772917918712515,
          0.027304229164668313
        ]
      }
    },
    {
      "type": "Feature",
      "properties": {
        "norad_id": 36131,
        "name": "DIRECTV 12",
        "group": "intelsat",
        "lat": 0.0035410569197572585,
        "lon": -169.12959679686546,
        "alt_km": 35787.91138904498,
        "timestamp": "2025-12-17T13:48:37.212002+00:00",
        "meta_object_name": "DIRECTV 12",
        "meta_object_id": "2009-075A",
        "meta_epoch": "2025-12-16T21:25:45.354720",
        "meta_mean_motion": 1.0026941,
        "meta_eccentricity": 2.927e-05,
        "meta_inclination": 0.0474,
        "meta_ra_of_asc_node": 153.0888,
        "meta_arg_of_pericenter": 198.3668,
        "meta_mean_anomaly": 313.0448,
        "meta_ephemeris_type": 0,
        "meta_classification_type": "U",
        "meta_norad_cat_id": 36131,
        "meta_element_set_no": 999,
        "meta_rev_at_epoch": 4472,
        "meta_bstar": 0,
        "meta_mean_motion_dot": -7.9e-07,
        "meta_mean_motion_ddot": 0,
        "tle_line1": "1 36131U 09075A   25350.89288605 -.00000079  00000+0  00000+0 0  9991",
        "tle_line2": "2 36131   0.0474 153.0888 0000292 198.3668 313.0448  1.00269410 44721"
      },
      "geometry": {
        "type": "Point",
        "coordinates": [
          -169.12959679686546,
          0.0035410569197572585
        ]
      }
    },
    {
      "type": "Feature",
      "properties": {
        "norad_id": 36397,
        "name": "INTELSAT 16 (IS-16)",
        "group": "intelsat",
        "lat": -0.029550744404665142,
        "lon": -142.62400090105774,
        "alt_km": 35781.549130974934,
        "timestamp": "2025-12-17T13:48:37.212013+00:00",
        "meta_object_name": "INTELSAT 16 (IS-16)",
        "meta_object_id": "2010-006A",
        "meta_epoch": "2025-12-17T04:24:13.855680",
        "meta_mean_motion": 1.00270972,
        "meta_eccentricity": 0.00018752,
        "meta_inclination": 0.0111,
        "meta_ra_of_asc_node": 346.2955,
        "meta_arg_of_pericenter": 283.9834,
        "meta_mean_anomaly": 165.644,
        "meta_ephemeris_type": 0,
        "meta_classification_type": "U",
        "meta_norad_cat_id": 36397,
        "meta_element_set_no": 999,
        "meta_rev_at_epoch": 5782,
        "meta_bstar": 0,
        "meta_mean_motion_dot": -2.2e-06,
        "meta_mean_motion_ddot": 0,
        "tle_line1": "1 36397U 10006A   25351.18349370 -.00000220  00000+0  00000+0 0  9999",
        "tle_line2": "2 36397   0.0111 346.2955 0001875 283.9834 165.6440  1.00270972 57821"
      },
      "geometry": {
        "type": "Point",
        "coordinates": [
          -142.62400090105774,
          -0.029550744404665142
        ]
      }
    },
    {
      "type": "Feature",
      "properties": {
        "norad_id": 37185,
        "name": "XM-5",
        "group": "intelsat",
        "lat": -0.06772058013666339,
        "lon": 178.41173157831736,
        "alt_km": 35780.10170765603,
        "timestamp": "2025-12-17T13:48:37.212025+00:00",
        "meta_object_name": "XM-5",
        "meta_object_id": "2010-053A",
        "meta_epoch": "2025-12-17T07:03:13.082688",
        "meta_mean_motion": 1.00270552,
        "meta_eccentricity": 0.00018477,
        "meta_inclination": 0.0639,
        "meta_ra_of_asc_node": 272.5266,
        "meta_arg_of_pericenter": 230.6899,
        "meta_mean_anomaly": 293.5684,
        "meta_ephemeris_type": 0,
        "meta_classification_type": "U",
        "meta_norad_cat_id": 37185,
        "meta_element_set_no": 999,
        "meta_rev_at_epoch": 5566,
        "meta_bstar": 0,
        "meta_mean_motion_dot": 2e-08,
        "meta_mean_motion_ddot": 0,
        "tle_line1": "1 37185U 10053A   25351.29390142  .00000002  00000+0  00000+0 0  9999",
        "tle_line2": "2 37185   0.0639 272.5266 0001847 230.6899 293.5684  1.00270552 55662"
      },
      "geometry": {
        "type": "Point",
        "coordinates": [
          178.41173157831736,
          -0.06772058013666339
        ]
      }
    }
  ]
}